{
  "type": "FeatureCollection",
  "features": [
    {
      "type": "Feature",
      "properties": {
        "norad_id": 33939,
        "name": "COSMOS 2251 DEB",
        "group": "cosmos-2251-debris",
        "lat": -51.36489213172174,
        "lon": 33.18837354871364,
        "alt_km": 569.7224953968207,
        "timestamp": "2025-12-25T16:53:15.056878+00:00",
        "meta_object_name": "COSMOS 2251 DEB",
        "meta_object_id": "1993-036EU",
        "meta_epoch": "2025-12-25T05:55:48.026496",
        "meta_mean_motion": 15.00744137,
        "meta_eccentricity": 0.0005044,
        "meta_inclination": 74.006,
        "meta_ra_of_asc_node": 55.1484,
        "meta_arg_of_pericenter": 13.8559,
        "meta_mean_anomaly": 346.2765,
        "meta_ephemeris_type": 0,
        "meta_classification_type": "U",
        "meta_norad_cat_id": 33939,
        "meta_element_set_no": 999,
        "meta_rev_at_epoch": 88940,
        "meta_bstar": 0.003031283,
        "meta_mean_motion_dot": 0.00038632,
        "meta_mean_motion_ddot": 0,
        "tle_line1": "1 33939U 93036EU  25359.24708364  .00038632  00000+0  30313-2 0  9999",
        "tle_line2": "2 33939  74.0060  55.1484 0005044  13.8559 346.2765 15.00744137889401"
      },
      "geometry": {
        "type": "Point",
        "coordinates": [
          33.18837354871364,
          -51.36489213172174
        ]
      }
    },
    {
      "type": "Feature",
      "properties": {
        "norad_id": 33940,
        "name": "COSMOS 2251 DEB",
        "group": "cosmos-2251-debris",
        "lat": -54.50662258331842,
        "lon": 95.15226724606892,
        "alt_km": 705.012669757346,
        "timestamp": "2025-12-25T16:53:15.056888+00:00",
        "meta_object_name": "COSMOS 2251 DEB",
        "meta_object_id": "1993-036EV",
        "meta_epoch": "2025-12-24T18:48:36.483840",
        "meta_mean_motion": 14.58907475,
        "meta_eccentricity": 0.00107123,
        "meta_inclination": 74.04,
        "meta_ra_of_asc_node": 120.5632,
        "meta_arg_of_pericenter": 201.3982,
        "meta_mean_anomaly": 311.3169,
        "meta_ephemeris_type": 0,
        "meta_classification_type": "U",
        "meta_norad_cat_id": 33940,
        "meta_element_set_no": 999,
        "meta_rev_at_epoch": 88769,
        "meta_bstar": 0.0011497519,
        "meta_mean_motion_dot": 5.367e-05,
        "meta_mean_motion_ddot": 0,
        "tle_line1": "1 33940U 93036EV  25358.78375560  .00005367  00000+0  11498-2 0  9999",
        "tle_line2": "2 33940  74.0400 120.5632 0010712 201.3982 311.3169 14.58907475887693"
      },
      "geometry": {
        "type": "Point",
        "coordinates": [
          95.15226724606892,
          -54.50662258331842
        ]
      }
    },
    {
      "type": "Feature",
      "properties": {
        "norad_id": 33942,
        "name": "COSMOS 2251 DEB",
        "group": "cosmos-2251-debris",
        "lat": -61.98575293669585,
        "lon": 103.50425878724054,
        "alt_km": 770.6516956934611,
        "timestamp": "2025-12-25T16:53:15.056899+00:00",
        "meta_object_name": "COSMOS 2251 DEB",
        "meta_object_id": "1993-036EX",
        "meta_epoch": "2025-12-25T03:05:19.739616",
        "meta_mean_motion": 14.38004819,
        "meta_eccentricity": 0.00208158,
        "meta_inclination": 74.0361,
        "meta_ra_of_asc_node": 252.0129,
        "meta_arg_of_pericenter": 333.0607,
        "meta_mean_anomaly": 178.6132,
        "meta_ephemeris_type": 0,
        "meta_classification_type": "U",
        "meta_norad_cat_id": 33942,
        "meta_element_set_no": 999,
        "meta_rev_at_epoch": 88312,
        "meta_bstar": 0.00019384633,
        "meta_mean_motion_dot": 5.61e-06,
        "meta_mean_motion_ddot": 0,
        "tle_line1": "1 33942U 93036EX  25359.12870069  .00000561  00000+0  19385-3 0  9999",
        "tle_line2": "2 33942  74.0361 252.0129 0020815 333.0607 178.6132 14.38004819883121"
      },
      "geometry": {
        "type": "Point",
        "coordinates": [
          103.50425878724054,
          -61.98575293669585
        ]
      }
    },
    {
      "type": "Feature",
      "properties": {
        "norad_id": 33944,
        "name": "COSMOS 2251 DEB",
        "group": "cosmos-2251-debris",
        "lat": 73.80962646042123,
        "lon": 24.81269872712449,
        "alt_km": 733.160235582207,
        "timestamp": "2025-12-25T16:53:15.056909+00:00",
        "meta_object_name": "COSMOS 2251 DEB",
        "meta_object_id": "1993-036EZ",
        "meta_epoch": "2025-12-25T05:31:51.222144",
        "meta_mean_motion": 14.37371258,
        "meta_eccentricity": 0.01127374,
        "meta_inclination": 74.0407,
        "meta_ra_of_asc_node": 285.9458,
        "meta_arg_of_pericenter": 22.3697,
        "meta_mean_anomaly": 141.5413,
        "meta_ephemeris_type": 0,
        "meta_classification_type": "U",
        "meta_norad_cat_id": 33944,
        "meta_element_set_no": 999,
        "meta_rev_at_epoch": 88207,
        "meta_bstar": 0.00037710409,
        "meta_mean_motion_dot": 1.185e-05,
        "meta_mean_motion_ddot": 0,
        "tle_line1": "1 33944U 93036EZ  25359.23045396  .00001185  00000+0  37710-3 0  9995",
        "tle_line2": "2 33944  74.0407 285.9458 0112737  22.3697 141.5413 14.37371258882073"
      },
      "geometry": {
        "type": "Point",
        "coordinates": [
          24.81269872712449,
          73.80962646042123
        ]
      }
    },
    {
      "type": "Feature",
      "properties": {
        "norad_id": 33945,
        "name": "COSMOS 2251 DEB",
        "group": "cosmos-2251-debris",
        "lat": 59.50848515826283,
        "lon": 73.41529878358268,
        "alt_km": 775.9220843235062,
        "timestamp": "2025-12-25T16:53:15.056919+00:00",
        "meta_object_name": "COSMOS 2251 DEB",
        "meta_object_id": "1993-036FA",
        "meta_epoch": "2025-12-25T04:38:00.841056",
        "meta_mean_motion": 14.34610401,
        "meta_eccentricity": 0.00224511,
        "meta_inclination": 74.0303,
        "meta_ra_of_asc_node": 283.4484,
        "meta_arg_of_pericenter": 6.5017,
        "meta_mean_anomaly": 353.6422,
        "meta_ephemeris_type": 0,
        "meta_classification_type": "U",
        "meta_norad_cat_id": 33945,
        "meta_element_set_no": 999,
        "meta_rev_at_epoch": 88194,
        "meta_bstar": 0.0001410856,
        "meta_mean_motion_dot": 3.74e-06,
        "meta_mean_motion_ddot": 0,
        "tle_line1": "1 33945U 93036FA  25359.19306529  .00000374  00000+0  14109-3 0  9995",
        "tle_line2": "2 33945  74.0303 283.4484 0022451   6.5017 353.6422 14.34610401881948"
      },
      "geometry": {
        "type": "Point",
        "coordinates": [
          73.41529878358268,
          59.50848515826283
        ]
      }
    },
    {
      "type": "Feature",
      "properties": {
        "norad_id": 33948,
        "name": "COSMOS 2251 DEB",
        "group": "cosmos-2251-debris",
        "lat": 12.503567231852589,
        "lon": -75.01158262127522,
        "alt_km": 758.0321107504942,
        "timestamp": "2025-12-25T16:53:15.056928+00:00",
        "meta_object_name": "COSMOS 2251 DEB",
        "meta_object_id": "1993-036FD",
        "meta_epoch": "2025-12-25T01:46:32.939904",
        "meta_mean_motion": 14.35643318,
        "meta_eccentricity": 0.00232718,
        "meta_inclination": 74.0361,
        "meta_ra_of_asc_node": 282.5037,
        "meta_arg_of_pericenter": 355.4381,
        "meta_mean_anomaly": 4.6555,
        "meta_ephemeris_type": 0,
        "meta_classification_type": "U",
        "meta_norad_cat_id": 33948,
        "meta_element_set_no": 999,
        "meta_rev_at_epoch": 88200,
        "meta_bstar": 0.00019649077,
        "meta_mean_motion_dot": 5.42e-06,
        "meta_mean_motion_ddot": 0,
        "tle_line1": "1 33948U 93036FD  25359.07399236  .00000542  00000+0  19649-3 0  9993",
        "tle_line2": "2 33948  74.0361 282.5037 0023271 355.4381   4.6555 14.35643318882002"
      },
      "geometry": {
        "type": "Point",
        "coordinates": [
          -75.01158262127522,
          12.503567231852589
        ]
      }
    },
    {
      "type": "Feature",
      "properties": {
        "norad_id": 33971,
        "name": "COSMOS 2251 DEB",
        "group": "cosmos-2251-debris",
        "lat": -73.90851587962742,
        "lon": 146.51247632618404,
        "alt_km": 758.7485265923178,
        "timestamp": "2025-12-25T16:53:15.056939+00:00",
        "meta_object_name": "COSMOS 2251 DEB",
        "meta_object_id": "1993-036FE",
        "meta_epoch": "2025-12-25T03:02:31.713216",
        "meta_mean_motion": 14.39745425,
        "meta_eccentricity": 0.00190063,
        "meta_inclination": 74.0238,
        "meta_ra_of_asc_node": 230.8403,
        "meta_arg_of_pericenter": 329.3481,
        "meta_mean_anomaly": 193.8334,
        "meta_ephemeris_type": 0,
        "meta_classification_type": "U",
        "meta_norad_cat_id": 33971,
        "meta_element_set_no": 999,
        "meta_rev_at_epoch": 88317,
        "meta_bstar": 0.00023640333,
        "meta_mean_motion_dot": 7.16e-06,
        "meta_mean_motion_ddot": 0,
        "tle_line1": "1 33971U 93036FE  25359.12675594  .00000716  00000+0  23640-3 0  9998",
        "tle_line2": "2 33971  74.0238 230.8403 0019006 329.3481 193.8334 14.39745425883177"
      },
      "geometry": {
        "type": "Point",
        "coordinates": [
          146.51247632618404,
          -73.90851587962742
        ]
      }
    }
  ]
}